1 42004U 17008BJ  21159.84353631  .00004375  00000-0  14926-3 0  9991
2 42004  97.3244 230.1068 0008613 118.0491 242.1622 15.30829642239950
1 42004U 17008BJ  21159.90890259  .00004362  00000-0  14882-3 0  9997
2 42004  97.3244 230.1713 0008618 117.8736 242.3379 15.30830215239972
1 42004U 17008BJ  21160.49719807  .00004330  00000-0  14774-3 0  9997
2 42004  97.3249 230.7525 0008593 115.9009 244.3119 15.30835689240064
1 42004U 17008BJ  21160.88939378  .00004493  00000-0  15317-3 0  9991
2 42004  97.3243 231.1392 0008653 115.1653 245.0486 15.30839850240125
1 42004U 17008BJ  21161.47768574  .00003931  00000-0  13434-3 0  9999
2 42004  97.3242 231.7200 0008670 113.5022 246.7131 15.30844126240216
1 42004U 17008BJ  21161.73914827  .00003731  00000-0  12762-3 0  9993
2 42004  97.3241 231.9781 0008682 112.7807 247.4353 15.30846030240249
1 42004U 17008BJ  21161.73914827  .00003731  00000-0  12762-3 0  9993
2 42004  97.3241 231.9781 0008682 112.7807 247.4353 15.30846030240250
1 42004U 17008BJ  21162.45816793  .00004322  00000-0  14737-3 0  9997
2 42004  97.3240 232.6879 0008676 110.7321 249.4850 15.30853676240367
1 42004U 17008BJ  21162.71962890  .00004155  00000-0  14177-3 0  9998
2 42004  97.3239 232.9461 0008678 109.9715 250.2461 15.30855726240405
1 42004U 17008BJ  21163.11181894  .00004624  00000-0  15746-3 0  9994
2 42004  97.3238 233.3332 0008674 108.8353 251.3830 15.30860745240452
1 42004U 17008BJ  21163.43864315  .00004731  00000-0  16103-3 0  9992
2 42004  97.3238 233.6559 0008679 107.8720 252.3468 15.30864407240512
1 42004U 17008BJ  21163.76546664  .00004758  00000-0  16191-3 0  9998
2 42004  97.3237 233.9786 0008687 106.9398 253.2796 15.30868287240565
1 42004U 17008BJ  21164.41911136  .00004630  00000-0  15760-3 0  9991
2 42004  97.3236 234.6239 0008710 105.1267 255.0938 15.30875110240659
1 42004U 17008BJ  21164.41911136  .00004630  00000-0  15760-3 0  9991
2 42004  97.3236 234.6239 0008710 105.1267 255.0938 15.30875110240660
1 42004U 17008BJ  21164.74593239  .00004687  00000-0  15950-3 0  9990
2 42004  97.3235 234.9466 0008707 104.1845 256.0364 15.30879151240710
1 42004U 17008BJ  21165.46493610  .00004302  00000-0  14657-3 0  9999
2 42004  97.3233 235.6564 0008699 102.2300 257.9916 15.30886275240819
1 42004U 17008BJ  21165.46493610  .00004302  00000-0  14657-3 0  9999
2 42004  97.3233 235.6564 0008699 102.2300 257.9916 15.30886275240820
1 42004U 17008BJ  21165.92248254  .00003998  00000-0  13638-3 0  9990
2 42004  97.3232 236.1081 0008692 101.0109 259.2111 15.30890186240891
1 42004U 17008BJ  21166.44539141  .00003909  00000-0  13337-3 0  9994
2 42004  97.3233 236.6243 0008695  99.5186 260.7038 15.30894404240977
1 42004U 17008BJ  21166.70684523  .00003942  00000-0  13449-3 0  9999
2 42004  97.3232 236.8825 0008698  98.7789 261.4438 15.30896975241009
1 42004U 17008BJ  21166.70684523  .00003942  00000-0  13449-3 0  9999
2 42004  97.3232 236.8825 0008698  98.7789 261.4438 15.30896975241010
1 42004U 17008BJ  21167.49120308  .00004988  00000-0  16941-3 0  9993
2 42004  97.3232 237.6568 0008703  96.5188 263.7044 15.30907093241134
1 42004U 17008BJ  21167.88338057  .00005637  00000-0  19110-3 0  9991
2 42004  97.3232 238.0440 0008694  95.3687 264.8547 15.30912371241199
1 42004U 17008BJ  21168.14483146  .00005736  00000-0  19437-3 0  9993
2 42004  97.3232 238.3022 0008687  94.6045 265.6188 15.30915447241221
1 42004U 17008BJ  21168.47164450  .00005509  00000-0  18678-3 0  9997
2 42004  97.3232 238.6248 0008689  93.7185 266.5050 15.30918229241286
1 42004U 17008BJ  21168.66773189  .00005448  00000-0  18471-3 0  9996
2 42004  97.3232 238.8184 0008681  93.1746 267.0489 15.30920440241310
1 42004U 17008BJ  21169.38671657  .00004450  00000-0  15135-3 0  9999
2 42004  97.3233 239.5282 0008664  91.2365 268.9869 15.30926629241424
1 42004U 17008BJ  21170.49786882  .00004286  00000-0  14580-3 0  9990
2 42004  97.3237 240.6252 0008653  88.0158 272.2075 15.30937261241599
1 42004U 17008BJ  21170.89003878  .00004089  00000-0  13920-3 0  9999
2 42004  97.3238 241.0123 0008640  86.9381 273.2849 15.30940052241641
1 42004U 17008BJ  21170.89003878  .00004089  00000-0  13920-3 0  9999
2 42004  97.3238 241.0123 0008640  86.9381 273.2849 15.30940052241652
1 42004U 17008BJ  21172.45870992  .00004076  00000-0  13873-3 0  9995
2 42004  97.3240 242.5609 0008582  82.4333 277.7883 15.30952987241896
1 42004U 17008BJ  21172.65479338  .00003571  00000-0  12185-3 0  9990
2 42004  97.3240 242.7545 0008573  81.9143 278.3070 15.30953159241910
1 42004U 17008BJ  21173.56984485  .00004434  00000-0  15065-3 0  9994
2 42004  97.3241 243.6580 0008527  79.2377 280.9824 15.30962348242061
1 42004U 17008BJ  21173.89664793  .00004447  00000-0  15105-3 0  9996
2 42004  97.3241 243.9807 0008518  78.3412 281.8784 15.30964877242116
1 42004U 17008BJ  21174.48489150  .00004826  00000-0  16370-3 0  9990
2 42004  97.3240 244.5614 0008497  76.7132 283.5056 15.30970868242203
1 42004U 17008BJ  21174.87705285  .00004868  00000-0  16508-3 0  9992
2 42004  97.3239 244.9487 0008480  75.5459 284.6722 15.30974333242263
1 42004U 17008BJ  21175.46529317  .00004445  00000-0  15092-3 0  9996
2 42004  97.3238 245.5294 0008450  73.9604 286.2568 15.30978620242344
1 42004U 17008BJ  21175.46529317  .00004445  00000-0  15092-3 0  9996
2 42004  97.3238 245.5294 0008450  73.9604 286.2568 15.30978620242355
1 42004U 17008BJ  21175.72673237  .00004582  00000-0  15548-3 0  9994
2 42004  97.3238 245.7875 0008433  73.1594 287.0572 15.30981623242398
1 42004U 17008BJ  21176.44568820  .00005220  00000-0  17673-3 0  9996
2 42004  97.3237 246.4975 0008383  71.0767 289.1382 15.30989892242500
1 42004U 17008BJ  21176.64176681  .00004950  00000-0  16774-3 0  9998
2 42004  97.3236 246.6911 0008377  70.5326 289.6820 15.30991060242523
1 42004U 17008BJ  21176.83784501  .00004785  00000-0  16220-3 0  9997
2 42004  97.3236 246.8847 0008372  69.9389 290.2752 15.30992413242568
1 42004U 17008BJ  21177.49143713  .00004750  00000-0  16101-3 0  9994
2 42004  97.3235 247.5301 0008340  68.1007 292.1120 15.30998476242669
1 42004U 17008BJ  21177.75287322  .00004804  00000-0  16280-3 0  9996
2 42004  97.3234 247.7882 0008328  67.3039 292.9082 15.31001094242696
1 42004U 17008BJ  21177.88359074  .00005156  00000-0  17455-3 0  9990
2 42004  97.3233 247.9173 0008314  66.9110 293.3007 15.31003310242729
1 42004U 17008BJ  21178.47181977  .00004769  00000-0  16162-3 0  9994
2 42004  97.3232 248.4982 0008277  65.1849 295.0252 15.31008110242814
1 42004U 17008BJ  21178.73325403  .00004873  00000-0  16507-3 0  9996
2 42004  97.3231 248.7563 0008254  64.4321 295.7773 15.31011059242858
1 42004U 17008BJ  21179.12540446  .00005029  00000-0  17024-3 0  9995
2 42004  97.3231 249.1435 0008217  63.1860 297.0220 15.31015368242909
1 42004U 17008BJ  21179.19076291  .00004756  00000-0  16115-3 0  9990
2 42004  97.3230 249.2080 0008212  62.9996 297.2082 15.31015344242921
1 42004U 17008BJ  21179.77898701  .00004808  00000-0  16285-3 0  9998
2 42004  97.3229 249.7888 0008176  61.3350 298.8712 15.31021110243012
1 42004U 17008BJ  21180.23649322  .00004889  00000-0  16554-3 0  9992
2 42004  97.3229 250.2406 0008148  59.9971 300.2078 15.31025615243080
1 42004U 17008BJ  21180.30185113  .00004946  00000-0  16743-3 0  9997
2 42004  97.3229 250.3051 0008144  59.8091 300.3956 15.31026344243081
1 42004U 17008BJ  21180.82471343  .00005378  00000-0  18178-3 0  9991
2 42004  97.3229 250.8214 0008112  58.2107 301.9923 15.31032215243178
1 42004U 17008BJ  21181.41293156  .00004827  00000-0  16340-3 0  9998
2 42004  97.3229 251.4022 0008067  56.4466 303.7544 15.31036453243255
1 42004U 17008BJ  21181.47828900  .00005735  00000-0  19364-3 0  9993
2 42004  97.3229 251.4667 0008061  56.1984 304.0024 15.31039077243270
1 42004U 17008BJ  21181.87043261  .00005919  00000-0  19974-3 0  9997
2 42004  97.3228 251.8539 0008029  55.0457 305.1538 15.31043456243333
1 42004U 17008BJ  21182.45864566  .00006551  00000-0  22075-3 0  9990
2 42004  97.3228 252.4346 0007974  53.2689 306.9283 15.31050917243416
1 42004U 17008BJ  21182.85078621  .00006315  00000-0  21284-3 0  9992
2 42004  97.3229 252.8218 0007921  52.1498 308.0459 15.31055231243486
1 42004U 17008BJ  21183.43899455  .00005899  00000-0  19897-3 0  9996
2 42004  97.3230 253.4027 0007881  50.3243 309.8692 15.31061836243572
1 42004U 17008BJ  21183.70041968  .00005845  00000-0  19717-3 0  9996
2 42004  97.3231 253.6608 0007857  49.4906 310.7019 15.31065111243606
1 42004U 17008BJ  21183.89648799  .00006101  00000-0  20567-3 0  9992
2 42004  97.3232 253.8544 0007841  48.9098 311.2819 15.31068058243648
1 42004U 17008BJ  21184.48469171  .00005757  00000-0  19418-3 0  9992
2 42004  97.3233 254.4351 0007788  47.0693 313.1200 15.31074166243735
1 42004U 17008BJ  21184.74611488  .00005633  00000-0  19002-3 0  9993
2 42004  97.3233 254.6932 0007761  46.2573 313.9309 15.31076904243764
1 42004U 17008BJ  21184.74611488  .00005633  00000-0  19002-3 0  9993
2 42004  97.3233 254.6932 0007761  46.2573 313.9309 15.31076904243775
1 42004U 17008BJ  21185.46502601  .00005156  00000-0  17413-3 0  9993
2 42004  97.3234 255.4030 0007680  43.9898 316.1953 15.31083634243888
1 42004U 17008BJ  21185.72644732  .00005391  00000-0  18194-3 0  9992
2 42004  97.3234 255.6611 0007647  43.1373 317.0466 15.31087008243921
1 42004U 17008BJ  21186.18393369  .00005072  00000-0  17131-3 0  9996
2 42004  97.3235 256.1128 0007604  41.6979 318.4841 15.31091234243983
1 42004U 17008BJ  21186.44535396  .00005048  00000-0  17048-3 0  9993
2 42004  97.3235 256.3709 0007579  40.9480 319.2329 15.31093591244035
1 42004U 17008BJ  21186.83748362  .00005181  00000-0  17488-3 0  9991
2 42004  97.3235 256.7581 0007549  39.7293 320.4500 15.31097759244093
1 42004U 17008BJ  21187.16425704  .00005345  00000-0  18033-3 0  9999
2 42004  97.3236 257.0807 0007521  38.7148 321.4631 15.31101785244144
1 42004U 17008BJ  21187.88315651  .00005657  00000-0  19066-3 0  9990
2 42004  97.3237 257.7906 0007450  36.5819 323.5930 15.31109657244246
